start=new Date('2022-12-07T00:00:00.000Z').valueOf();
sats=[{"MEAN_MOTION_DOT":"0.00001369","MEAN_ANOMALY":"294.4116","SEMIMAJOR_AXIS":"6925.342","RA_OF_ASC_NODE":"245.2362","SITE":"AFETR","REV_AT_EPOCH":"16116","FILE":"3683104","PERIOD":"95.592","ELEMENT_SET_NO":"999","TLE_LINE1":"1 44957U 20001AV  22340.46516981  .00001369  00000-0  11078-3 0  9992","BSTAR":"0.00011078000000","TLE_LINE2":"2 44957  53.0549 245.2362 0001599  65.7040 294.4116 15.06402236161168","TIME_SYSTEM":"UTC","RCS_SIZE":"LARGE","DECAY_DATE":null,"OBJECT_TYPE":"PAYLOAD","CENTER_NAME":"EARTH","INCLINATION":"53.0549","COUNTRY_CODE":"US","OBJECT_NAME":"STARLINK-1074","EPOCH":"2022-12-06T11:09:50.671584","CLASSIFICATION_TYPE":"U","ARG_OF_PERICENTER":"65.7040","MEAN_MOTION":"15.06402236","ECCENTRICITY":"0.00015990","APOAPSIS":"548.314","EPHEMERIS_TYPE":"0","PERIAPSIS":"546.099","LAUNCH_DATE":"2020-01-07","GP_ID":"219663613","OBJECT_ID":"2020-001AV","REF_FRAME":"TEME","MEAN_MOTION_DDOT":"0.0000000000000","MEAN_ELEMENT_THEORY":"SGP4","NORAD_CAT_ID":"44957"},{"REV_AT_EPOCH":"16116","SITE":"AFETR","RA_OF_ASC_NODE":"245.1814","TLE_LINE1":"1 44959U 20001AX  22340.48085703  .00003541  00000-0  25645-3 0  9998","BSTAR":"0.00025645000000","ELEMENT_SET_NO":"999","PERIOD":"95.592","FILE":"3683104","MEAN_MOTION_DOT":"0.00003541","SEMIMAJOR_AXIS":"6925.326","MEAN_ANOMALY":"295.2435","INCLINATION":"53.0567","CENTER_NAME":"EARTH","COUNTRY_CODE":"US","DECAY_DATE":null,"RCS_SIZE":"LARGE","TIME_SYSTEM":"UTC","TLE_LINE2":"2 44959  53.0567 245.1814 0001857  64.8747 295.2435 15.06407300161162","OBJECT_TYPE":"PAYLOAD","APOAPSIS":"548.477","OBJECT_NAME":"STARLINK-1076","ECCENTRICITY":"0.00018570","CLASSIFICATION_TYPE":"U","ARG_OF_PERICENTER":"64.8747","MEAN_MOTION":"15.06407300","EPOCH":"2022-12-06T11:32:26.047392","MEAN_ELEMENT_THEORY":"SGP4","REF_FRAME":"TEME","MEAN_MOTION_DDOT":"0.0000000000000","NORAD_CAT_ID":"44959","LAUNCH_DATE":"2020-01-07","PERIAPSIS":"545.905","EPHEMERIS_TYPE":"0","GP_ID":"219663848","OBJECT_ID":"2020-001AX"},{"REV_AT_EPOCH":"16116","SITE":"AFETR","RA_OF_ASC_NODE":"245.4572","TLE_LINE1":"1 44961U 20001AZ  22340.42187736  .00001431  00000-0  11492-3 0  9995","ELEMENT_SET_NO":"999","BSTAR":"0.00011492000000","PERIOD":"95.592","FILE":"3683308","MEAN_MOTION_DOT":"0.00001431","SEMIMAJOR_AXIS":"6925.331","MEAN_ANOMALY":"282.5494","INCLINATION":"53.0543","CENTER_NAME":"EARTH","COUNTRY_CODE":"US","DECAY_DATE":null,"RCS_SIZE":"LARGE","TIME_SYSTEM":"UTC","TLE_LINE2":"2 44961  53.0543 245.4572 0001519  77.5665 282.5494 15.06405596161167","OBJECT_TYPE":"PAYLOAD","APOAPSIS":"548.248","OBJECT_NAME":"STARLINK-1080","ECCENTRICITY":"0.00015190","CLASSIFICATION_TYPE":"U","ARG_OF_PERICENTER":"77.5665","MEAN_MOTION":"15.06405596","EPOCH":"2022-12-06T10:07:30.203904","MEAN_ELEMENT_THEORY":"SGP4","REF_FRAME":"TEME","MEAN_MOTION_DDOT":"0.0000000000000","NORAD_CAT_ID":"44961","LAUNCH_DATE":"2020-01-07","PERIAPSIS":"546.144","EPHEMERIS_TYPE":"0","GP_ID":"219700787","OBJECT_ID":"2020-001AZ"},{"DECAY_DATE":null,"RCS_SIZE":"LARGE","TLE_LINE2":"2 44963  52.9762 214.7075 0004875 144.1405 215.9920 15.25508275162319","TIME_SYSTEM":"UTC","OBJECT_TYPE":"PAYLOAD","INCLINATION":"52.9762","CENTER_NAME":"EARTH","COUNTRY_CODE":"US","MEAN_MOTION_DOT":"0.00040259","SEMIMAJOR_AXIS":"6867.397","MEAN_ANOMALY":"215.9920","SITE":"AFETR","REV_AT_EPOCH":"16231","RA_OF_ASC_NODE":"214.7075","TLE_LINE1":"1 44963U 20001BB  22340.79959827  .00040259  00000-0  15726-2 0  9999","BSTAR":"0.00157260000000","ELEMENT_SET_NO":"999","FILE":"3683274","PERIOD":"94.395","LAUNCH_DATE":"2020-01-07","EPHEMERIS_TYPE":"0","PERIAPSIS":"485.914","OBJECT_ID":"2020-001BB","GP_ID":"219693328","MEAN_MOTION_DDOT":"0.0000000000000","REF_FRAME":"TEME","MEAN_ELEMENT_THEORY":"SGP4","NORAD_CAT_ID":"44963","OBJECT_NAME":"STARLINK-1085","CLASSIFICATION_TYPE":"U","ARG_OF_PERICENTER":"144.1405","MEAN_MOTION":"15.25508275","ECCENTRICITY":"0.00048750","EPOCH":"2022-12-06T19:11:25.290528","APOAPSIS":"492.609"},{"NORAD_CAT_ID":"44964","MEAN_ELEMENT_THEORY":"SGP4","REF_FRAME":"TEME","MEAN_MOTION_DDOT":"0.0000000000000","OBJECT_ID":"2020-001BC","GP_ID":"219664097","PERIAPSIS":"546.127","EPHEMERIS_TYPE":"0","LAUNCH_DATE":"2020-01-07","APOAPSIS":"548.320","EPOCH":"2022-12-06T10:49:58.792224","ECCENTRICITY":"0.00015830","MEAN_MOTION":"15.06396693","CLASSIFICATION_TYPE":"U","ARG_OF_PERICENTER":"61.7610","OBJECT_NAME":"STARLINK-1086","COUNTRY_CODE":"US","CENTER_NAME":"EARTH","INCLINATION":"53.0557","OBJECT_TYPE":"PAYLOAD","TIME_SYSTEM":"UTC","TLE_LINE2":"2 44964  53.0557 245.3133 0001583  61.7610 298.3538 15.06396693161164","RCS_SIZE":"LARGE","DECAY_DATE":null,"PERIOD":"95.592","FILE":"3683104","TLE_LINE1":"1 44964U 20001BC  22340.45137491  .00000302  00000-0  39148-4 0  9999","ELEMENT_SET_NO":"999","BSTAR":"0.00003914800000","RA_OF_ASC_NODE":"245.3133","REV_AT_EPOCH":"16116","SITE":"AFETR","MEAN_ANOMALY":"298.3538","SEMIMAJOR_AXIS":"6925.359","MEAN_MOTION_DOT":"0.00000302"},{"SEMIMAJOR_AXIS":"6925.342","MEAN_ANOMALY":"300.3288","MEAN_MOTION_DOT":"0.00003885","TLE_LINE1":"1 44966U 20001BE  22340.14175162  .00003885  00000-0  27952-3 0  9992","ELEMENT_SET_NO":"999","BSTAR":"0.00027952000000","PERIOD":"95.592","FILE":"3683104","REV_AT_EPOCH":"16111","SITE":"AFETR","RA_OF_ASC_NODE":"246.7204","OBJECT_TYPE":"PAYLOAD","DECAY_DATE":null,"RCS_SIZE":"LARGE","TIME_SYSTEM":"UTC","TLE_LINE2":"2 44966  53.0545 246.7204 0001537  59.7853 300.3288 15.06402256161116","COUNTRY_CODE":"US","INCLINATION":"53.0545","CENTER_NAME":"EARTH","ECCENTRICITY":"0.00015370","ARG_OF_PERICENTER":"59.7853","CLASSIFICATION_TYPE":"U","MEAN_MOTION":"15.06402256","EPOCH":"2022-12-06T03:24:07.339968","OBJECT_NAME":"STARLINK-1088","APOAPSIS":"548.271","OBJECT_ID":"2020-001BE","GP_ID":"219664333","LAUNCH_DATE":"2020-01-07","PERIAPSIS":"546.142","EPHEMERIS_TYPE":"0","NORAD_CAT_ID":"44966","MEAN_ELEMENT_THEORY":"SGP4","REF_FRAME":"TEME","MEAN_MOTION_DDOT":"0.0000000000000"},{"APOAPSIS":"548.617","EPOCH":"2022-12-06T18:15:50.726592","CLASSIFICATION_TYPE":"U","MEAN_MOTION":"15.06380943","ARG_OF_PERICENTER":"56.2617","ECCENTRICITY":"0.00019420","OBJECT_NAME":"STARLINK-1089","NORAD_CAT_ID":"44967","REF_FRAME":"TEME","MEAN_MOTION_DDOT":"0.0000000000000","MEAN_ELEMENT_THEORY":"SGP4","GP_ID":"219700819","OBJECT_ID":"2020-001BF","EPHEMERIS_TYPE":"0","PERIAPSIS":"545.927","LAUNCH_DATE":"2020-01-07","FILE":"3683309","PERIOD":"95.593","TLE_LINE1":"1 44967U 20001BF  22340.76100378  .00003287  00000-0  23960-3 0  9999","ELEMENT_SET_NO":"999","BSTAR":"0.00023960000000","RA_OF_ASC_NODE":"243.9210","SITE":"AFETR","REV_AT_EPOCH":"16121","MEAN_ANOMALY":"303.8557","SEMIMAJOR_AXIS":"6925.407","MEAN_MOTION_DOT":"0.00003287","COUNTRY_CODE":"US","CENTER_NAME":"EARTH","INCLINATION":"53.0546","OBJECT_TYPE":"PAYLOAD","TLE_LINE2":"2 44967  53.0546 243.9210 0001942  56.2617 303.8557 15.06380943161210","TIME_SYSTEM":"UTC","DECAY_DATE":null,"RCS_SIZE":"LARGE"},{"PERIOD":"95.591","FILE":"3683309","TLE_LINE1":"1 44968U 20001BG  22340.16017198  .00001819  00000-0  14093-3 0  9997","BSTAR":"0.00014093000000","ELEMENT_SET_NO":"999","RA_OF_ASC_NODE":"246.6263","REV_AT_EPOCH":"16112","SITE":"AFETR","MEAN_ANOMALY":"297.5068","SEMIMAJOR_AXIS":"6925.314","MEAN_MOTION_DOT":"0.00001819","COUNTRY_CODE":"US","CENTER_NAME":"EARTH","INCLINATION":"53.0551","OBJECT_TYPE":"PAYLOAD","TIME_SYSTEM":"UTC","TLE_LINE2":"2 44968  53.0551 246.6263 0001755  62.6099 297.5068 15.06411163161127","RCS_SIZE":"LARGE","DECAY_DATE":null,"APOAPSIS":"548.395","EPOCH":"2022-12-06T03:50:38.859072","ECCENTRICITY":"0.00017550","ARG_OF_PERICENTER":"62.6099","CLASSIFICATION_TYPE":"U","MEAN_MOTION":"15.06411163","OBJECT_NAME":"STARLINK-1090","NORAD_CAT_ID":"44968","MEAN_ELEMENT_THEORY":"SGP4","REF_FRAME":"TEME","MEAN_MOTION_DDOT":"0.0000000000000","GP_ID":"219700820","OBJECT_ID":"2020-001BG","PERIAPSIS":"545.964","EPHEMERIS_TYPE":"0","LAUNCH_DATE":"2020-01-07"},{"MEAN_MOTION_DOT":"0.00002113","SEMIMAJOR_AXIS":"6925.331","MEAN_ANOMALY":"315.0959","REV_AT_EPOCH":"16111","SITE":"AFETR","RA_OF_ASC_NODE":"246.6672","TLE_LINE1":"1 44969U 20001BH  22340.15280391  .00002113  00000-0  16070-3 0  9999","ELEMENT_SET_NO":"999","BSTAR":"0.00016070000000","PERIOD":"95.592","FILE":"3683104","RCS_SIZE":"LARGE","DECAY_DATE":null,"TIME_SYSTEM":"UTC","TLE_LINE2":"2 44969  53.0536 246.6672 0001862  45.0181 315.0959 15.06405844161114","OBJECT_TYPE":"PAYLOAD","INCLINATION":"53.0536","CENTER_NAME":"EARTH","COUNTRY_CODE":"US","OBJECT_NAME":"STARLINK-1092","ECCENTRICITY":"0.00018620","CLASSIFICATION_TYPE":"U","ARG_OF_PERICENTER":"45.0181","MEAN_MOTION":"15.06405844","EPOCH":"2022-12-06T03:40:02.257824","APOAPSIS":"548.485","LAUNCH_DATE":"2020-01-07","PERIAPSIS":"545.906","EPHEMERIS_TYPE":"0","OBJECT_ID":"2020-001BH","GP_ID":"219663614","MEAN_ELEMENT_THEORY":"SGP4","REF_FRAME":"TEME","MEAN_MOTION_DDOT":"0.0000000000000","NORAD_CAT_ID":"44969"},{"OBJECT_NAME":"STARLINK-1093","EPOCH":"2022-12-06T17:28:03.899424","MEAN_MOTION":"15.06385161","CLASSIFICATION_TYPE":"U","ARG_OF_PERICENTER":"84.7652","ECCENTRICITY":"0.00013200","APOAPSIS":"548.173","EPHEMERIS_TYPE":"0","PERIAPSIS":"546.345","LAUNCH_DATE":"2020-01-07","OBJECT_ID":"2020-001BJ","GP_ID":"219700650","REF_FRAME":"TEME","MEAN_MOTION_DDOT":"0.0000000000000","MEAN_ELEMENT_THEORY":"SGP4","NORAD_CAT_ID":"44970","MEAN_MOTION_DOT":"-0.00000414","MEAN_ANOMALY":"275.3487","SEMIMAJOR_AXIS":"6925.394","RA_OF_ASC_NODE":"244.0705","SITE":"AFETR","REV_AT_EPOCH":"16119","FILE":"3683310","PERIOD":"95.593","BSTAR":"-0.00000890680000","TLE_LINE1":"1 44970U 20001BJ  22340.72782291 -.00000414  00000-0 -89068-5 0  9993","ELEMENT_SET_NO":"999","TLE_LINE2":"2 44970  53.0558 244.0705 0001320  84.7652 275.3487 15.06385161161192","TIME_SYSTEM":"UTC","DECAY_DATE":null,"RCS_SIZE":"LARGE","OBJECT_TYPE":"PAYLOAD","CENTER_NAME":"EARTH","INCLINATION":"53.0558","COUNTRY_CODE":"US"}];
